[{"OBJECT_NAME":"OBJECT Y","OBJECT_ID":"2023-085Y","EPOCH":"2026-03-09T22:38:54.992256","MEAN_MOTION":15.32500153,"ECCENTRICITY":0.00063298,"INCLINATION":97.4849,"RA_OF_ASC_NODE":180.8653,"ARG_OF_PERICENTER":67.4431,"MEAN_ANOMALY":292.748,"EPHEMERIS_TYPE":0,"CLASSIFICATION_TYPE":"U","NORAD_CAT_ID":57026,"ELEMENT_SET_NO":999,"REV_AT_EPOCH":15160,"BSTAR":0.00065512761,"MEAN_MOTION_DOT":0.00020524,"MEAN_MOTION_DDOT":0},{"OBJECT_NAME":"STARLINK-35638","OBJECT_ID":"2025-240Z","EPOCH":"2026-03-09T05:06:39.453696","MEAN_MOTION":15.30190887,"ECCENTRICITY":0.0001351,"INCLINATION":53.1589,"RA_OF_ASC_NODE":65.1441,"ARG_OF_PERICENTER":64.8493,"MEAN_ANOMALY":295.2648,"EPHEMERIS_TYPE":0,"CLASSIFICATION_TYPE":"U","NORAD_CAT_ID":66169,"ELEMENT_SET_NO":999,"REV_AT_EPOCH":2191,"BSTAR":0.00040601082,"MEAN_MOTION_DOT":0.00011681,"MEAN_MOTION_DDOT":0}]
